[{"OBJECT_NAME":"STARLINK-36514","OBJECT_ID":"2026-020AA","EPOCH":"2026-03-09T22:00:01.999584","MEAN_MOTION":15.6241414,"ECCENTRICITY":0.00012447,"INCLINATION":42.9994,"RA_OF_ASC_NODE":140.2417,"ARG_OF_PERICENTER":280.6067,"MEAN_ANOMALY":239.0507,"EPHEMERIS_TYPE":0,"CLASSIFICATION_TYPE":"U","NORAD_CAT_ID":67641,"ELEMENT_SET_NO":999,"REV_AT_EPOCH":604,"BSTAR":-0.024506103,"MEAN_MOTION_DOT":-0.01968149,"MEAN_MOTION_DDOT":0},{"OBJECT_NAME":"PEGASUS R\/B","OBJECT_ID":"2002-004B","EPOCH":"2026-03-09T07:11:51.016992","MEAN_MOTION":15.51953178,"ECCENTRICITY":0.00077214,"INCLINATION":38.0163,"RA_OF_ASC_NODE":76.1473,"ARG_OF_PERICENTER":199.0072,"MEAN_ANOMALY":161.0418,"EPHEMERIS_TYPE":0,"CLASSIFICATION_TYPE":"U","NORAD_CAT_ID":27371,"ELEMENT_SET_NO":999,"REV_AT_EPOCH":32600,"BSTAR":0.00056893587,"MEAN_MOTION_DOT":0.00035208,"MEAN_MOTION_DDOT":0}]
